NORAD_CAT_ID,OBJECT_NAME,OBJECT_TYPE,EPOCH,MEAN_MOTION,ECCENTRICITY,INCLINATION,RA_OF_ASC_NODE,ARG_OF_PERICENTER,MEAN_ANOMALY,BSTAR,MEAN_MOTION_DOT,MEAN_MOTION_DDOT,TLE_LINE0,TLE_LINE1,TLE_LINE2,SEMIMAJOR_AXIS,PERIOD,APOGEE,PERIGEE,DECAYED
52692.0,STARLINK-3993,PAYLOAD,2022-09-10 14:00:01,15.08820242,0.0001614,53.2163,112.7706,64.7911,168.991,0.0021988,0.0003486,0.0,0 STARLINK-3993,1 52692U 22053AN  22253.58334491  .00034860  00000-0  21988-2 0  9998,2 52692  53.2163 112.7706 0001614  64.7911 168.9910 15.08820242  1300,6917.941,95.439,540.922,538.689,0.0
52692.0,STARLINK-3993,PAYLOAD,2022-09-10 22:00:00,15.08824192,0.0001374,53.2162,111.2757,61.0935,184.3803,-0.0022988,-0.00036671,0.0,0 STARLINK-3993,1 52692U 22053AN  22253.91667824 -.00036671  00000-0 -22988-2 0  9999,2 52692  53.2162 111.2757 0001374  61.0935 184.3803 15.08824192  1309,6917.929,95.439,540.744,538.8430000000002,0.0
52692.0,STARLINK-3993,PAYLOAD,2022-09-11 06:00:00,15.08828808,0.0001264999999999,53.2162,109.7784,59.0566,197.9841,-0.0016242,-0.00026036,0.0,0 STARLINK-3993,1 52692U 22053AN  22254.25001157 -.00026036  00000-0 -16242-2 0  9998,2 52692  53.2162 109.7784 0001265  59.0566 197.9841 15.08828808 18204,6917.915,95.438,540.655,538.904,0.0
52692.0,STARLINK-3993,PAYLOAD,2022-09-11 14:00:01,15.08812779,0.0001252999999999,53.2164,108.2809,68.0143,200.5949,0.0020254,0.00032069,0.0,0 STARLINK-3993,1 52692U 22053AN  22254.58334491  .00032069  00000-0  20254-2 0  9993,2 52692  53.2164 108.2809 0001253  68.0143 200.5949 15.08812779  1309,6917.964,95.439,540.695,538.962,0.0
52692.0,STARLINK-3993,PAYLOAD,2022-09-11 20:00:01,15.08832936,0.0001364,53.2164,107.16,60.6211,126.669,-0.00070555,-0.00011497,0.0,0 STARLINK-3993,1 52692U 22053AN  22254.83334491 -.00011497  00000-0 -70555-3 0  9995,2 52692  53.2164 107.1600 0001364  60.6211 126.6690 15.08832936 18297,6917.901999999999,95.438,540.711,538.823,0.0
52692.0,STARLINK-3993,PAYLOAD,2022-09-11 22:00:00,15.08821992,0.0001419999999999,53.2165,106.7862,58.6775,221.5109,0.00088672,0.00013845,0.0,0 STARLINK-3993,1 52692U 22053AN  22254.91667824  .00013845  00000-0  88672-3 0  9999,2 52692  53.2165 106.7862 0001420  58.6775 221.5109 15.08821992  1302,6917.935,95.439,540.783,538.818,0.0
52692.0,STARLINK-3993,PAYLOAD,2022-09-12 14:00:01,15.08817113,0.0001406999999999,53.2169,103.7915,69.2294,234.1283,0.0019372,0.00030658,0.0,0 STARLINK-3993,1 52692U 22053AN  22255.58334491  .00030658  00000-0  19372-2 0  9995,2 52692  53.2169 103.7915 0001407  69.2294 234.1283 15.08817113  1304,6917.95,95.439,540.789,538.842,0.0
52692.0,STARLINK-3993,PAYLOAD,2022-09-12 22:00:00,15.088235699999998,0.0001551,53.2169,102.2969,60.3493,254.5918,0.0013019,0.00020483,0.0,0 STARLINK-3993,1 52692U 22053AN  22255.91667824  .00020483  00000-0  13019-2 0  9998,2 52692  53.2169 102.2969 0001551  60.3493 254.5918 15.08823570 18459,6917.931,95.439,540.869,538.7230000000002,0.0
52692.0,STARLINK-3993,PAYLOAD,2022-09-13 14:00:01,15.08832288,0.0001469,53.2173,99.3023,70.2979,267.8138,0.00156,0.00024621,0.0,0 STARLINK-3993,1 52692U 22053AN  22256.58334491  .00024621  00000-0  15600-2 0  9999,2 52692  53.2173  99.3023 0001469  70.2979 267.8138 15.08832288  1301,6917.904,95.438,540.785,538.753,0.0
52692.0,STARLINK-3993,PAYLOAD,2022-09-13 16:00:00,15.08851129,0.0001469,53.2174,98.9296,68.2057,2.7986,-0.00070894,-0.00011556,0.0,0 STARLINK-3993,1 52692U 22053AN  22256.66667824 -.00011556  00000-0 -70894-3 0  9999,2 52692  53.2174  98.9296 0001469  68.2057   2.7986 15.08851129 18561,6917.846,95.437,540.7280000000002,538.695,0.0
52692.0,STARLINK-3993,PAYLOAD,2022-09-13 22:00:00,15.088401500000002,0.0001557,53.2173,97.8076,61.0012,288.7011,-0.0012102999999999,-0.00019498,0.0,0 STARLINK-3993,1 52692U 22053AN  22256.91667824 -.00019498  00000-0 -12103-2 0  9998,2 52692  53.2173  97.8076 0001557  61.0012 288.7011 15.08840150  1305,6917.88,95.438,540.822,538.668,0.0
52692.0,STARLINK-3993,PAYLOAD,2022-09-14 14:00:01,15.08830683,0.0001348,53.2175,94.8133,69.2119,303.6538,0.00090267,0.00014104,0.0,0 STARLINK-3993,1 52692U 22053AN  22257.58334491  .00014104  00000-0  90267-3 0  9998,2 52692  53.2175  94.8133 0001348  69.2119 303.6538 15.08830683  1305,6917.909000000002,95.438,540.706,538.841,0.0
52692.0,STARLINK-3993,PAYLOAD,2022-09-14 22:00:00,15.08822294,0.0001478,53.2174,93.3186,60.1438,324.3136,0.0016649999999999,0.00026297,0.0,0 STARLINK-3993,1 52692U 22053AN  22257.91667824  .00026297  00000-0  16650-2 0  9993,2 52692  53.2174  93.3186 0001478  60.1438 324.3136 15.08822294 18754,6917.935,95.439,540.822,538.7769999999998,0.0
52692.0,STARLINK-3993,PAYLOAD,2022-09-15 14:00:01,15.08852381,0.0001428,53.2174,90.3244,70.5883,337.0553,-0.0016905999999999,-0.00027102,0.0,0 STARLINK-3993,1 52692U 22053AN  22258.58334491 -.00027102  00000-0 -16906-2 0  9990,2 52692  53.2174  90.3244 0001428  70.5883 337.0553 15.08852381  1307,6917.843000000003,95.437,540.695,538.72,0.0
52692.0,STARLINK-3993,PAYLOAD,2022-09-15 15:22:51,15.08749376,0.0002065999999999,53.2177,90.0668,70.9598,289.1618,0.0015849,0.00024963,0.0,0 STARLINK-3993,1 52692U 22053AN  22258.64087001  .00024963  00000-0  15849-2 0  9994,2 52692  53.2177  90.0668 0002066  70.9598 289.1618 15.08749376 19265,6918.156999999997,95.443,541.452,538.5930000000002,0.0
52692.0,STARLINK-3993,PAYLOAD,2022-09-16 12:02:49,15.08835076,0.0001526,53.218,86.2009,66.0138,294.1013,0.00016027,2.263e-05,0.0,0 STARLINK-3993,1 52692U 22053AN  22259.50196482  .00002263  00000-0  16027-3 0  9993,2 52692  53.2180  86.2009 0001526  66.0138 294.1013 15.08835076 19393,6917.895,95.438,540.816,538.705,0.0
52692.0,STARLINK-3993,PAYLOAD,2022-09-16 15:13:35,15.08837978,0.000149,53.2179,85.6058,71.7934,288.322,0.00017478,2.495e-05,0.0,0 STARLINK-3993,1 52692U 22053AN  22259.63444309  .00002495  00000-0  17478-3 0  9999,2 52692  53.2179  85.6058 0001490  71.7934 288.3220 15.08837978 19416,6917.887,95.438,540.7819999999998,538.721,0.0
52692.0,STARLINK-3993,PAYLOAD,2022-09-17 07:07:27,15.08833397,0.0001746,53.2171,82.6332,62.378,297.7389,-4.8363e-05,-1.058e-05,0.0,0 STARLINK-3993,1 52692U 22053AN  22260.29684764 -.00001058  00000-0 -48363-4 0  9998,2 52692  53.2171  82.6332 0001746  62.3780 297.7389 15.08833397 19511,6917.901,95.438,540.9730000000002,538.558,0.0
52692.0,STARLINK-3993,PAYLOAD,2022-09-17 19:50:32,15.08833868,0.0001308,53.2184,80.2542,68.1746,291.9385,7.2263e-05,8.62e-06,0.0,0 STARLINK-3993,1 52692U 22053AN  22260.82677017  .00000862  00000-0  72263-4 0  9996,2 52692  53.2184  80.2542 0001308  68.1746 291.9385 15.08833868 19191,6917.899,95.438,540.669,538.859,0.0
52692.0,STARLINK-3993,PAYLOAD,2022-09-18 10:09:00,15.08852532,0.0001419,53.2185,77.5781,61.88800000000001,298.2256,-2.263e-05,-6.48e-06,0.0,0 STARLINK-3993,1 52692U 22053AN  22261.42292295 -.00000648  00000-0 -22630-4 0  9991,2 52692  53.2185  77.5781 0001419  61.8880 298.2256 15.08852532 19284,6917.842,95.437,540.689,538.725,0.0
52692.0,STARLINK-3993,PAYLOAD,2022-09-18 11:44:23,15.08862207,0.0001364,53.2185,77.2806,61.1033,299.0096,-0.00014594,-2.611e-05,0.0,0 STARLINK-3993,1 52692U 22053AN  22261.48915933 -.00002611  00000-0 -14594-3 0  9999,2 52692  53.2185  77.2806 0001364  61.1033 299.0096 15.08862207 19697,6917.813,95.436,540.621,538.734,0.0
52692.0,STARLINK-3993,PAYLOAD,2022-09-18 18:05:56,15.08848112,0.0001440999999999,53.2185,76.0911,63.8892,296.2248,0.00012936,1.772e-05,0.0,0 STARLINK-3993,1 52692U 22053AN  22261.75412127  .00001772  00000-0  12936-3 0  9999,2 52692  53.2185  76.0911 0001441  63.8892 296.2248 15.08848112 19731,6917.856,95.437,540.717,538.724,0.0
52692.0,STARLINK-3993,PAYLOAD,2022-09-19 06:49:01,15.08844171,0.0001445,53.2185,73.7121,63.712,296.4021,0.00021104,3.073e-05,0.0,0 STARLINK-3993,1 52692U 22053AN  22262.28404180  .00003073  00000-0  21104-3 0  9991,2 52692  53.2185  73.7121 0001445  63.7120 296.4021 15.08844171 19816,6917.868,95.437,540.732,538.7330000000002,0.0
52692.0,STARLINK-3993,PAYLOAD,2022-09-19 13:10:34,15.08837172,0.0001447,53.2185,72.5226,63.7763,296.3377,0.00010441,1.374e-05,0.0,0 STARLINK-3993,1 52692U 22053AN  22262.54900862  .00001374  00000-0  10441-3 0  9992,2 52692  53.2185  72.5226 0001447  63.7763 296.3377 15.08837172 19450,6917.889,95.438,540.755,538.753,0.0
52692.0,STARLINK-3993,PAYLOAD,2022-09-20 11:25:57,15.08839915,0.00015,53.2177,68.3595,63.7362,296.3784,-3.774e-05,-8.89e-06,0.0,0 STARLINK-3993,1 52692U 22053AN  22263.47636511 -.00000889  00000-0 -37740-4 0  9996,2 52692  53.2177  68.3595 0001500  63.7362 296.3784 15.08839915 19996,6917.880999999999,95.438,540.783,538.7080000000002,0.0
52692.0,STARLINK-3993,PAYLOAD,2022-09-20 13:01:21,15.08839861,0.0001473,53.2185,68.0622,64.2369,295.8775,-7.0897e-06,-4.01e-06,0.0,0 STARLINK-3993,1 52692U 22053AN  22263.54260718 -.00000401  00000-0 -70897-5 0  9997,2 52692  53.2185  68.0622 0001473  64.2369 295.8775 15.08839861 20003,6917.880999999999,95.438,540.765,538.727,0.0
52692.0,STARLINK-3993,PAYLOAD,2022-09-21 11:16:44,15.08839148,0.0001354,53.2188,63.8982,70.0718,290.0420000000001,6.5916e-05,7.61e-06,0.0,0 STARLINK-3993,1 52692U 22053AN  22264.46996442  .00000761  00000-0  65916-4 0  9991,2 52692  53.2188  63.8982 0001354  70.0718 290.0420 15.08839148 19740,6917.8830000000025,95.438,540.685,538.811,0.0
52692.0,STARLINK-3993,PAYLOAD,2022-09-21 17:38:17,15.08833216,0.0001435,53.2192,62.7095,62.3204,297.7934,7.7019e-06,-1.65e-06,0.0,0 STARLINK-3993,1 52692U 22053AN  22264.73493023 -.00000165  00000-0  77019-5 0  9995,2 52692  53.2192  62.7095 0001435  62.3204 297.7934 15.08833216 20186,6917.901,95.438,540.759,538.773,0.0
52692.0,STARLINK-3993,PAYLOAD,2022-09-22 12:42:55,15.08838161,0.0001588,53.2191,59.1418,61.9789,298.1364,0.00010989,1.461e-05,0.0,0 STARLINK-3993,1 52692U 22053AN  22265.52980695  .00001461  00000-0  10989-3 0  9999,2 52692  53.2191  59.1418 0001588  61.9789 298.1364 15.08838161 20306,6917.886,95.438,540.85,538.6519999999998,0.0
